NORAD_CAT_ID,OBJECT_NAME,OBJECT_TYPE,EPOCH,MEAN_MOTION,ECCENTRICITY,INCLINATION,RA_OF_ASC_NODE,ARG_OF_PERICENTER,MEAN_ANOMALY,BSTAR,MEAN_MOTION_DOT,MEAN_MOTION_DDOT,TLE_LINE0,TLE_LINE1,TLE_LINE2,SEMIMAJOR_AXIS,PERIOD,APOGEE,PERIGEE,DECAYED
55300.0,STARLINK-5308,PAYLOAD,2023-08-23 07:50:09,14.98330492,0.0003388,69.9995,207.5451,266.478,93.5992,2.2126e-06,-6.7e-07,0.0,0 STARLINK-5308,1 55300U 23010AH  23235.32649623 -.00000067  00000-0  22126-5 0  9991,2 55300  69.9995 207.5451 0003388 266.4780  93.5992 14.98330492 33759,6950.191,96.107,574.411,569.702,0.0
55300.0,STARLINK-5308,PAYLOAD,2023-08-24 09:28:19,14.98319248,0.0003465,69.9995,204.852,267.5768,92.4994,-7.466e-05,-9.84e-06,0.0,0 STARLINK-5308,1 55300U 23010AH  23236.39466890 -.00000984  00000-0 -74660-4 0  9990,2 55300  69.9995 204.8520 0003465 267.5768  92.4994 14.98319248 34229,6950.226,96.108,574.499,569.683,0.0
55300.0,STARLINK-5308,PAYLOAD,2023-08-25 03:05:47,14.98327494,0.0003585,69.9992,202.9998,269.3027,90.7721,-3.1823e-05,-4.73e-06,0.0,0 STARLINK-5308,1 55300U 23010AH  23237.12902532 -.00000473  00000-0 -31823-4 0  9997,2 55300  69.9992 202.9998 0003585 269.3027  90.7721 14.98327494 34024,6950.201,96.107,574.557,569.574,0.0
55300.0,STARLINK-5308,PAYLOAD,2023-08-25 09:30:19,14.98331134,0.0003533,69.9993,202.3267,268.4874,91.588,1.5357e-05,9e-07,0.0,0 STARLINK-5308,1 55300U 23010AH  23237.39606189  .00000090  00000-0  15357-4 0  9992,2 55300  69.9993 202.3267 0003533 268.4874  91.5880 14.98331134 34370,6950.189,96.107,574.51,569.599,0.0
55300.0,STARLINK-5308,PAYLOAD,2023-08-25 20:43:15,14.98329762,0.0003612,69.9992,201.1481,268.5413,91.5332,0.0001526,1.728e-05,0.0,0 STARLINK-5308,1 55300U 23010AH  23237.86337828  .00001728  00000-0  15260-3 0  9996,2 55300  69.9992 201.1481 0003612 268.5413  91.5332 14.98329762 34132,6950.194,96.107,574.569,569.548,0.0
55300.0,STARLINK-5308,PAYLOAD,2023-08-26 07:56:11,14.98337296,0.000356,69.9993,199.9701,267.3997,92.6755,0.00021294,2.449e-05,0.0,0 STARLINK-5308,1 55300U 23010AH  23238.33069077  .00002449  00000-0  21294-3 0  9992,2 55300  69.9993 199.9701 0003560 267.3997  92.6755 14.98337296 34208,6950.17,96.107,574.51,569.561,0.0
55300.0,STARLINK-5308,PAYLOAD,2023-08-27 01:33:41,14.98332593,0.0003417,69.9999,198.1187,268.389,91.6878,-6.0177e-08,-9.4e-07,0.0,0 STARLINK-5308,1 55300U 23010AH  23239.06505822 -.00000094  00000-0 -60177-7 0  9999,2 55300  69.9999 198.1187 0003417 268.3890  91.6878 14.98332593 34319,6950.185,96.107,574.425,569.675,0.0
55300.0,STARLINK-5308,PAYLOAD,2023-08-27 04:45:57,14.98333543,0.0003304,70.0,197.7825,267.4392,92.6389,5.4365e-06,-2.8e-07,0.0,0 STARLINK-5308,1 55300U 23010AH  23239.19857699 -.00000028  00000-0  54365-5 0  9991,2 55300  70.0000 197.7825 0003304 267.4392  92.6389 14.98333543 34641,6950.182,96.107,574.343,569.751,0.0
55300.0,STARLINK-5308,PAYLOAD,2023-08-27 20:47:17,14.98336745,0.0003179,70.0005,196.0998,268.6956,91.3839,-6.22e-05,-8.35e-06,0.0,0 STARLINK-5308,1 55300U 23010AH  23239.86617438 -.00000835  00000-0 -62200-4 0  9993,2 55300  70.0005 196.0998 0003179 268.6956  91.3839 14.98336745 34742,6950.172,96.107,574.246,569.828,0.0
55300.0,STARLINK-5308,PAYLOAD,2023-08-28 03:11:49,14.98335963,0.0003128,70.0003,195.426,264.7298,95.3504,-7.3605e-05,-9.71e-06,0.0,0 STARLINK-5308,1 55300U 23010AH  23240.13321370 -.00000971  00000-0 -73605-4 0  9994,2 55300  70.0003 195.4260 0003128 264.7298  95.3504 14.98335963 34479,6950.174,96.107,574.213,569.865,0.0
55300.0,STARLINK-5308,PAYLOAD,2023-08-28 20:49:18,14.98329073,0.000332,69.9998,193.5742,266.8824,93.1955,-4.965e-05,-6.85e-06,0.0,0 STARLINK-5308,1 55300U 23010AH  23240.86757467 -.00000685  00000-0 -49650-4 0  9999,2 55300  69.9998 193.5742 0003320 266.8824  93.1955 14.98329073 34892,6950.196,96.107,574.368,569.753,0.0
55300.0,STARLINK-5308,PAYLOAD,2023-08-29 08:02:14,14.9832733,0.0003199,70.0,192.3962,265.6125,94.4668,0.00010984,1.218e-05,0.0,0 STARLINK-5308,1 55300U 23010AH  23241.33489136  .00001218  00000-0  10984-3 0  9995,2 55300  70.0000 192.3962 0003199 265.6125  94.4668 14.98327330 34658,6950.201,96.107,574.29,569.843,0.0
55300.0,STARLINK-5308,PAYLOAD,2023-08-30 14:28:48,14.98328576,0.0003238,69.9999,189.1977,267.9899,92.089,-1.8645e-05,-3.15e-06,0.0,0 STARLINK-5308,1 55300U 23010AH  23242.60333495 -.00000315  00000-0 -18645-4 0  9994,2 55300  69.9999 189.1977 0003238 267.9899  92.0890 14.98328576 34844,6950.197,96.107,574.313,569.812,0.0
55300.0,STARLINK-5308,PAYLOAD,2023-08-31 06:30:08,14.98328347,0.0002847,69.9998,187.5148,266.2793,93.8041,9.8116e-05,1.078e-05,0.0,0 STARLINK-5308,1 55300U 23010AH  23243.27093237  .00001078  00000-0  98116-4 0  9991,2 55300  69.9998 187.5148 0002847 266.2793  93.8041 14.98328347 35254,6950.198,96.107,574.042,570.084,0.0
55300.0,STARLINK-5308,PAYLOAD,2023-09-01 03:19:53,14.98327881,0.0003039,70.0007,185.3267,265.6472,94.4339,6.6042e-05,6.95e-06,0.0,0 STARLINK-5308,1 55300U 23010AH  23244.13881269  .00000695  00000-0  66042-4 0  9994,2 55300  70.0007 185.3267 0003039 265.6472  94.4339 14.98327881 35076,6950.199,96.107,574.177,569.952,0.0
55300.0,STARLINK-5308,PAYLOAD,2023-09-01 12:56:41,14.98331095,0.0002941,70.0017,184.3171,272.372,87.7102,6.7631e-05,7.14e-06,0.0,0 STARLINK-5308,1 55300U 23010AH  23244.53937119  .00000714  00000-0  67631-4 0  9991,2 55300  70.0017 184.3171 0002941 272.3720  87.7102 14.98331095 35448,6950.19,96.107,574.099,570.01,0.0
55300.0,STARLINK-5308,PAYLOAD,2023-09-01 19:21:14,14.98332662,0.0003071,70.0017,183.6441,270.4708,89.6099,-2.7586e-05,-4.22e-06,0.0,0 STARLINK-5308,1 55300U 23010AH  23244.80641206 -.00000422  00000-0 -27586-4 0  9993,2 55300  70.0017 183.6441 0003071 270.4708  89.6099 14.98332662 35481,6950.185,96.107,574.184,569.915,0.0
55300.0,STARLINK-5308,PAYLOAD,2023-09-03 01:47:46,14.98346169,0.0003271,69.9999,180.4461,266.1082,93.9704,-0.00021407,-2.647e-05,0.0,0 STARLINK-5308,1 55300U 23010AH  23246.07484792 -.00002647  00000-0 -21407-3 0  9995,2 55300  69.9999 180.4461 0003271 266.1082  93.9704 14.98346169 35368,6950.143,96.106,574.281,569.734,0.0
55300.0,STARLINK-5308,PAYLOAD,2023-09-03 13:00:43,14.98329151,0.0003011,70.001,179.2683,269.1762,90.9052,-3.7563e-05,-5.41e-06,0.0,0 STARLINK-5308,1 55300U 23010AH  23246.54217128 -.00000541  00000-0 -37563-4 0  9996,2 55300  70.0010 179.2683 0003011 269.1762  90.9052 14.98329151 35744,6950.196,96.107,574.153,569.968,0.0
55300.0,STARLINK-5308,PAYLOAD,2023-09-04 01:49:48,14.98321084,0.0003017,70.0006,177.9213,267.3331,92.7483,-8.9005e-05,-1.155e-05,0.0,0 STARLINK-5308,1 55300U 23010AH  23247.07625957 -.00001155  00000-0 -89005-4 0  9998,2 55300  70.0006 177.9213 0003017 267.3331  92.7483 14.98321084 35511,6950.22,96.108,574.182,569.989,0.0
55300.0,STARLINK-5308,PAYLOAD,2023-09-04 05:02:04,14.98322374,0.0002922,70.0006,177.585,268.7703,91.3121,-7.5449e-05,-9.93e-06,0.0,0 STARLINK-5308,1 55300U 23010AH  23247.20977921 -.00000993  00000-0 -75449-4 0  9990,2 55300  70.0006 177.5850 0002922 268.7703  91.3121 14.98322374 35849,6950.216,96.107,574.112,570.051,0.0
55300.0,STARLINK-5308,PAYLOAD,2023-09-05 01:51:49,14.98337694,0.0003177,70.0003,175.3971,268.3285,91.7511,-0.00013117,-1.658e-05,0.0,0 STARLINK-5308,1 55300U 23010AH  23248.07765270 -.00001658  00000-0 -13117-3 0  9990,2 55300  70.0003 175.3971 0003177 268.3285  91.7511 14.98337694 35668,6950.169,96.107,574.242,569.826,0.0
55300.0,STARLINK-5308,PAYLOAD,2023-09-06 01:53:50,14.98328476,0.0003028,70.0007,172.8724,269.4112,90.67,0.00010226,1.127e-05,0.0,0 STARLINK-5308,1 55300U 23010AH  23249.07905149  .00001127  00000-0  10226-3 0  9999,2 55300  70.0007 172.8724 0003028 269.4112  90.6700 14.98328476 35819,6950.198,96.107,574.167,569.958,0.0
55300.0,STARLINK-5308,PAYLOAD,2023-09-06 17:55:10,14.98333864,0.0002924,70.001,171.1899,268.5135,91.5689,6.2493e-06,-1.8e-07,0.0,0 STARLINK-5308,1 55300U 23010AH  23249.74665041 -.00000018  00000-0  62493-5 0  9991,2 55300  70.0010 171.1899 0002924 268.5135  91.5689 14.98333864 36226,6950.181,96.107,574.078,570.014,0.0
55300.0,STARLINK-5308,PAYLOAD,2023-09-07 01:55:50,14.98333612,0.0002939,70.001,170.3481,268.8218,91.2604,3.2295e-06,-5.4e-07,0.0,0 STARLINK-5308,1 55300U 23010AH  23250.08044964 -.00000054  00000-0  32295-5 0  9992,2 55300  70.0010 170.3481 0002939 268.8218  91.2604 14.98333612 35960,6950.182,96.107,574.089,570.004,0.0
55300.0,STARLINK-5308,PAYLOAD,2023-09-07 05:08:06,14.98336171,0.0002861,70.0011,170.011,269.2556,90.8275,3.6512e-05,3.43e-06,0.0,0 STARLINK-5308,1 55300U 23010AH  23250.21396669  .00000343  00000-0  36512-4 0  9994,2 55300  70.0011 170.0110 0002861 269.2556  90.8275 14.98336171 36290,6950.174,96.107,574.027,570.05,0.0
55300.0,STARLINK-5308,PAYLOAD,2023-09-07 17:57:11,14.98330152,0.0002482,69.9991,168.6646,266.7711,93.3164,-3.9464e-05,-5.64e-06,0.0,0 STARLINK-5308,1 55300U 23010AH  23250.74805149 -.00000564  00000-0 -39464-4 0  9996,2 55300  69.9991 168.6646 0002482 266.7711  93.3164 14.98330152 36372,6950.192,96.107,573.782,570.332,0.0
55300.0,STARLINK-5308,PAYLOAD,2023-09-08 01:57:52,14.98327801,0.0002556,70.0012,167.8234,268.5962,91.4905,-5.3909e-05,-7.36e-06,0.0,0 STARLINK-5308,1 55300U 23010AH  23251.08185362 -.00000736  00000-0 -53909-4 0  9993,2 55300  70.0012 167.8234 0002556 268.5962  91.4905 14.98327801 36114,6950.2,96.107,573.841,570.288,0.0
55300.0,STARLINK-5308,PAYLOAD,2023-09-08 05:10:08,14.98329325,0.0002548,70.0013,167.4868,268.6952,91.3915,-3.5087e-05,-5.12e-06,0.0,0 STARLINK-5308,1 55300U 23010AH  23251.21537222 -.00000512  00000-0 -35087-4 0  9993,2 55300  70.0013 167.4868 0002548 268.6952  91.3915 14.98329325 36444,6950.195,96.107,573.831,570.289,0.0
55300.0,STARLINK-5308,PAYLOAD,2023-09-09 01:59:52,14.98333304,0.0002668,70.001,165.2983,264.4741,95.6114,-1.2869e-05,-2.46e-06,0.0,0 STARLINK-5308,1 55300U 23010AH  23252.08324756 -.00000246  00000-0 -12869-4 0  9992,2 55300  70.0010 165.2983 0002668 264.4741  95.6114 14.98333304 36268,6950.183,96.107,573.902,570.193,0.0
